[{"OBJECT_NAME":"SL-8 R/B","OBJECT_ID":"1991-006B","EPOCH":"2026-04-20T09:07:31.465920","MEAN_MOTION":13.77502743,"ECCENTRICITY":0.00209264,"INCLINATION":82.9408,"RA_OF_ASC_NODE":139.0432,"ARG_OF_PERICENTER":278.9315,"MEAN_ANOMALY":92.3527,"EPHEMERIS_TYPE":0,"CLASSIFICATION_TYPE":"U","NORAD_CAT_ID":21088,"ELEMENT_SET_NO":999,"REV_AT_EPOCH":76981,"BSTAR":0.00013716631,"MEAN_MOTION_DOT":1.52e-6,"MEAN_MOTION_DDOT":0},{"OBJECT_NAME":"OKEAN-3","OBJECT_ID":"1991-039A","EPOCH":"2026-04-20T05:38:53.765664","MEAN_MOTION":15.05026444,"ECCENTRICITY":0.0014104,"INCLINATION":82.5131,"RA_OF_ASC_NODE":296.5756,"ARG_OF_PERICENTER":182.3299,"MEAN_ANOMALY":177.7864,"EPHEMERIS_TYPE":0,"CLASSIFICATION_TYPE":"U","NORAD_CAT_ID":21397,"ELEMENT_SET_NO":999,"REV_AT_EPOCH":87128,"BSTAR":0.0001049,"MEAN_MOTION_DOT":1.52e-5,"MEAN_MOTION_DDOT":0},{"OBJECT_NAME":"COSMOS 2151","OBJECT_ID":"1991-042A","EPOCH":"2026-04-20T13:41:47.552928","MEAN_MOTION":15.00278107,"ECCENTRICITY":0.00106175,"INCLINATION":82.4982,"RA_OF_ASC_NODE":43.2695,"ARG_OF_PERICENTER":280.2564,"MEAN_ANOMALY":79.7463,"EPHEMERIS_TYPE":0,"CLASSIFICATION_TYPE":"U","NORAD_CAT_ID":21422,"ELEMENT_SET_NO":999,"REV_AT_EPOCH":86947,"BSTAR":9.7600703e-5,"MEAN_MOTION_DOT":1.25e-5,"MEAN_MOTION_DDOT":0},{"OBJECT_NAME":"SL-14 R/B","OBJECT_ID":"1991-042B","EPOCH":"2026-04-20T05:13:57.498240","MEAN_MOTION":14.81867009,"ECCENTRICITY":0.0018569,"INCLINATION":82.4955,"RA_OF_ASC_NODE":181.2534,"ARG_OF_PERICENTER":103.8416,"MEAN_ANOMALY":256.4866,"EPHEMERIS_TYPE":0,"CLASSIFICATION_TYPE":"U","NORAD_CAT_ID":21423,"ELEMENT_SET_NO":999,"REV_AT_EPOCH":85922,"BSTAR":2.7293e-5,"MEAN_MOTION_DOT":2.4e-6,"MEAN_MOTION_DDOT":0},{"OBJECT_NAME":"ERS-1","OBJECT_ID":"1991-050A","EPOCH":"2026-04-20T08:00:51.624576","MEAN_MOTION":14.3947973,"ECCENTRICITY":0.00331046,"INCLINATION":98.7843,"RA_OF_ASC_NODE":129.6097,"ARG_OF_PERICENTER":79.3731,"MEAN_ANOMALY":281.1182,"EPHEMERIS_TYPE":0,"CLASSIFICATION_TYPE":"U","NORAD_CAT_ID":21574,"ELEMENT_SET_NO":999,"REV_AT_EPOCH":82172,"BSTAR":7.5102564e-5,"MEAN_MOTION_DOT":1.89e-6,"MEAN_MOTION_DDOT":0},{"OBJECT_NAME":"ARIANE 40 R/B","OBJECT_ID":"1991-050F","EPOCH":"2026-04-20T03:31:56.752896","MEAN_MOTION":14.42921895,"ECCENTRICITY":0.00020905,"INCLINATION":98.1932,"RA_OF_ASC_NODE":160.8104,"ARG_OF_PERICENTER":328.8672,"MEAN_ANOMALY":31.2394,"EPHEMERIS_TYPE":0,"CLASSIFICATION_TYPE":"U","NORAD_CAT_ID":21610,"ELEMENT_SET_NO":999,"REV_AT_EPOCH":82497,"BSTAR":5.8192112e-5,"MEAN_MOTION_DOT":1.53e-6,"MEAN_MOTION_DDOT":0},{"OBJECT_NAME":"INTERCOSMOS 25","OBJECT_ID":"1991-086A","EPOCH":"2026-04-20T04:12:45.156960","MEAN_MOTION":12.12121729,"ECCENTRICITY":0.14858103,"INCLINATION":82.599,"RA_OF_ASC_NODE":284.9177,"ARG_OF_PERICENTER":27.5288,"MEAN_ANOMALY":339.7057,"EPHEMERIS_TYPE":0,"CLASSIFICATION_TYPE":"U","NORAD_CAT_ID":21819,"ELEMENT_SET_NO":999,"REV_AT_EPOCH":50171,"BSTAR":0.00014828999,"MEAN_MOTION_DOT":7.79e-6,"MEAN_MOTION_DDOT":0},{"OBJECT_NAME":"SL-8 R/B","OBJECT_ID":"1992-008B","EPOCH":"2026-04-20T14:19:18.514848","MEAN_MOTION":13.7597011,"ECCENTRICITY":0.00349275,"INCLINATION":82.9268,"RA_OF_ASC_NODE":236.602,"ARG_OF_PERICENTER":19.7897,"MEAN_ANOMALY":351.4978,"EPHEMERIS_TYPE":0,"CLASSIFICATION_TYPE":"U","NORAD_CAT_ID":21876,"ELEMENT_SET_NO":999,"REV_AT_EPOCH":71518,"BSTAR":-3.33696e-6,"MEAN_MOTION_DOT":1.2e-7,"MEAN_MOTION_DDOT":0},{"OBJECT_NAME":"SL-8 R/B","OBJECT_ID":"1992-020B","EPOCH":"2026-04-20T11:10:17.851296","MEAN_MOTION":13.75548992,"ECCENTRICITY":0.00290436,"INCLINATION":82.927,"RA_OF_ASC_NODE":122.7354,"ARG_OF_PERICENTER":178.35,"MEAN_ANOMALY":346.532,"EPHEMERIS_TYPE":0,"CLASSIFICATION_TYPE":"U","NORAD_CAT_ID":21938,"ELEMENT_SET_NO":999,"REV_AT_EPOCH":70687,"BSTAR":-6.8669123e-5,"MEAN_MOTION_DOT":-5.1e-7,"MEAN_MOTION_DDOT":0},{"OBJECT_NAME":"USA 81","OBJECT_ID":"1992-023A","EPOCH":"2026-04-20T10:24:16.250688","MEAN_MOTION":14.32380974,"ECCENTRICITY":0.00012219,"INCLINATION":85.0035,"RA_OF_ASC_NODE":107.3435,"ARG_OF_PERICENTER":94.2222,"MEAN_ANOMALY":265.9111,"EPHEMERIS_TYPE":0,"CLASSIFICATION_TYPE":"U","NORAD_CAT_ID":21949,"ELEMENT_SET_NO":999,"REV_AT_EPOCH":10076,"BSTAR":3.8066508e-5,"MEAN_MOTION_DOT":1.23e-6,"MEAN_MOTION_DDOT":0},{"OBJECT_NAME":"COSMOS 2219","OBJECT_ID":"1992-076A","EPOCH":"2026-04-20T11:14:56.351328","MEAN_MOTION":14.14091601,"ECCENTRICITY":0.00171233,"INCLINATION":71.0585,"RA_OF_ASC_NODE":290.7314,"ARG_OF_PERICENTER":141.2819,"MEAN_ANOMALY":218.9535,"EPHEMERIS_TYPE":0,"CLASSIFICATION_TYPE":"U","NORAD_CAT_ID":22219,"ELEMENT_SET_NO":999,"REV_AT_EPOCH":72428,"BSTAR":0.00016711068,"MEAN_MOTION_DOT":2.72e-6,"MEAN_MOTION_DDOT":0},{"OBJECT_NAME":"SL-16 R/B","OBJECT_ID":"1992-076B","EPOCH":"2026-04-20T10:34:33.697920","MEAN_MOTION":14.1686684,"ECCENTRICITY":0.00117911,"INCLINATION":70.9981,"RA_OF_ASC_NODE":100.426,"ARG_OF_PERICENTER":21.3891,"MEAN_ANOMALY":140.4843,"EPHEMERIS_TYPE":0,"CLASSIFICATION_TYPE":"U","NORAD_CAT_ID":22220,"ELEMENT_SET_NO":999,"REV_AT_EPOCH":72774,"BSTAR":-5.5837806e-5,"MEAN_MOTION_DOT":-1.6e-6,"MEAN_MOTION_DDOT":0},{"OBJECT_NAME":"COSMOS 2221","OBJECT_ID":"1992-080A","EPOCH":"2026-04-20T08:47:51.220320","MEAN_MOTION":14.96371156,"ECCENTRICITY":0.00153491,"INCLINATION":82.5036,"RA_OF_ASC_NODE":239.1483,"ARG_OF_PERICENTER":56.5679,"MEAN_ANOMALY":303.7008,"EPHEMERIS_TYPE":0,"CLASSIFICATION_TYPE":"U","NORAD_CAT_ID":22236,"ELEMENT_SET_NO":999,"REV_AT_EPOCH":78702,"BSTAR":0.00011001015,"MEAN_MOTION_DOT":1.274e-5,"MEAN_MOTION_DDOT":0},{"OBJECT_NAME":"SL-16 R/B","OBJECT_ID":"1992-093B","EPOCH":"2026-04-20T03:39:00.156096","MEAN_MOTION":14.15454064,"ECCENTRICITY":0.00062583,"INCLINATION":71.0199,"RA_OF_ASC_NODE":277.2235,"ARG_OF_PERICENTER":251.3769,"MEAN_ANOMALY":108.6675,"EPHEMERIS_TYPE":0,"CLASSIFICATION_TYPE":"U","NORAD_CAT_ID":22285,"ELEMENT_SET_NO":999,"REV_AT_EPOCH":71902,"BSTAR":9.5878814e-5,"MEAN_MOTION_DOT":1.4e-6,"MEAN_MOTION_DDOT":0},{"OBJECT_NAME":"COSMOS 2228","OBJECT_ID":"1992-094A","EPOCH":"2026-04-20T13:19:42.561408","MEAN_MOTION":14.97393029,"ECCENTRICITY":0.00186385,"INCLINATION":82.5206,"RA_OF_ASC_NODE":197.2305,"ARG_OF_PERICENTER":157.0817,"MEAN_ANOMALY":203.1242,"EPHEMERIS_TYPE":0,"CLASSIFICATION_TYPE":"U","NORAD_CAT_ID":22286,"ELEMENT_SET_NO":999,"REV_AT_EPOCH":78232,"BSTAR":0.00011070671,"MEAN_MOTION_DOT":1.317e-5,"MEAN_MOTION_DDOT":0},{"OBJECT_NAME":"SL-16 R/B","OBJECT_ID":"1993-016B","EPOCH":"2026-04-20T09:48:31.714560","MEAN_MOTION":14.15311468,"ECCENTRICITY":0.00126503,"INCLINATION":71.0042,"RA_OF_ASC_NODE":127.5621,"ARG_OF_PERICENTER":261.6957,"MEAN_ANOMALY":98.2732,"EPHEMERIS_TYPE":0,"CLASSIFICATION_TYPE":"U","NORAD_CAT_ID":22566,"ELEMENT_SET_NO":999,"REV_AT_EPOCH":70807,"BSTAR":-0.00011778098,"MEAN_MOTION_DOT":-2.77e-6,"MEAN_MOTION_DDOT":0},{"OBJECT_NAME":"COSMOS 2242","OBJECT_ID":"1993-024A","EPOCH":"2026-04-20T13:20:30.665472","MEAN_MOTION":14.96726012,"ECCENTRICITY":0.00168636,"INCLINATION":82.52,"RA_OF_ASC_NODE":226.6644,"ARG_OF_PERICENTER":160.0755,"MEAN_ANOMALY":200.113,"EPHEMERIS_TYPE":0,"CLASSIFICATION_TYPE":"U","NORAD_CAT_ID":22626,"ELEMENT_SET_NO":999,"REV_AT_EPOCH":78665,"BSTAR":0.00011346758,"MEAN_MOTION_DOT":1.326e-5,"MEAN_MOTION_DDOT":0}]
