SL-8 R/B
1 21088U 91006B   26110.38022530  .00000152  00000+0  13717-3 0  9997
2 21088  82.9408 139.0432 0020926 278.9315  92.3527 13.77502743769816
OKEAN-3
1 21397U 91039A   26110.23534451  .00001520  00000+0  10490-3 0  9995
2 21397  82.5131 296.5756 0014104 182.3299 177.7864 15.05026444871285
COSMOS 2151
1 21422U 91042A   26110.57068927  .00001250  00000+0  97601-4 0  9995
2 21422  82.4982  43.2695 0010617 280.2564  79.7463 15.00278107869478
SL-14 R/B
1 21423U 91042B   26110.21802660  .00000240  00000+0  27293-4 0  9995
2 21423  82.4955 181.2534 0018569 103.8416 256.4866 14.81867009859220
ERS-1
1 21574U 91050A   26110.33393084  .00000189  00000+0  75103-4 0  9994
2 21574  98.7843 129.6097 0033104  79.3731 281.1182 14.39479730821725
ARIANE 40 R/B
1 21610U 91050F   26110.14718464  .00000153  00000+0  58192-4 0  9997
2 21610  98.1932 160.8104 0002090 328.8672  31.2394 14.42921895824978
INTERCOSMOS 25
1 21819U 91086A   26110.17552265  .00000779  00000+0  14829-3 0  9997
2 21819  82.5990 284.9177 1485810  27.5288 339.7057 12.12121729501719
SL-8 R/B
1 21876U 92008B   26110.59674207  .00000012  00000+0 -33370-5 0  9997
2 21876  82.9268 236.6020 0034927  19.7897 351.4978 13.75970110715189
SL-8 R/B
1 21938U 92020B   26110.46548439 -.00000051  00000+0 -68669-4 0  9995
2 21938  82.9270 122.7354 0029043 178.3500 346.5320 13.75548992706873
USA 81
1 21949U 92023A   26110.43352142  .00000123  00000+0  38067-4 0  9998
2 21949  85.0035 107.3435 0001221  94.2222 265.9111 14.32380974100768
COSMOS 2219
1 22219U 92076A   26110.46870777  .00000272  00000+0  16711-3 0  9995
2 22219  71.0585 290.7314 0017123 141.2819 218.9535 14.14091601724283
SL-16 R/B
1 22220U 92076B   26110.44066780 -.00000160  00000+0 -55838-4 0  9998
2 22220  70.9981 100.4260 0011791  21.3891 140.4843 14.16866840727745
COSMOS 2221
1 22236U 92080A   26110.36656505  .00001274  00000+0  11001-3 0  9999
2 22236  82.5036 239.1483 0015349  56.5679 303.7008 14.96371156787029
SL-16 R/B
1 22285U 92093B   26110.15208514  .00000140  00000+0  95879-4 0  9994
2 22285  71.0199 277.2235 0006258 251.3769 108.6675 14.15454064719026
COSMOS 2228
1 22286U 92094A   26110.55535372  .00001317  00000+0  11071-3 0  9993
2 22286  82.5206 197.2305 0018638 157.0817 203.1242 14.97393029782320
SL-16 R/B
1 22566U 93016B   26110.40870040 -.00000277  00000+0 -11778-3 0  9997
2 22566  71.0042 127.5621 0012650 261.6957  98.2732 14.15311468708078
COSMOS 2242
1 22626U 93024A   26110.55591048  .00001326  00000+0  11347-3 0  9993
2 22626  82.5200 226.6644 0016863 160.0755 200.1130 14.96726012786652
